OBJECT_NAME,OBJECT_ID,EPOCH,MEAN_MOTION,ECCENTRICITY,INCLINATION,RA_OF_ASC_NODE,ARG_OF_PERICENTER,MEAN_ANOMALY,EPHEMERIS_TYPE,CLASSIFICATION_TYPE,NORAD_CAT_ID,ELEMENT_SET_NO,REV_AT_EPOCH,BSTAR,MEAN_MOTION_DOT,MEAN_MOTION_DDOT
BRITE-AUSTRIA,2013-009F,2024-07-08T00:28:16.730112,14.35833985,.001006,98.3855,17.0043,191.1362,168.9603,0,U,39091,999,59526,.12783E-3,.328E-5,0
IRIS,2013-033A,2024-07-07T13:18:28.594368,14.82123259,.0027312,97.9634,20.0863,113.8043,246.6037,0,U,39197,999,59512,.24386E-3,.1898E-4,0
HISAKI (SPRINT-A),2013-049A,2024-07-07T11:50:04.067232,13.55403935,.0137055,29.7178,227.7948,23.7886,336.8949,0,U,39253,999,53610,.97195E-4,.134E-5,0
CASSIOPE,2013-055A,2024-07-07T18:46:01.047648,14.70994436,.0493666,80.9528,172.8317,202.8110,155.0481,0,U,39265,999,56140,.31587E-3,.15181E-3,0
STSAT-3,2013-066G,2024-07-08T04:10:07.774176,14.95106196,.0018933,97.5213,168.8227,291.8205,68.1002,0,U,39422,999,57795,.28185E-3,.3045E-4,0
SWARM B,2013-067A,2024-07-07T13:43:15.096000,15.20522800,.0003005,87.7515,196.4219,92.1707,267.9882,0,U,39451,999,57509,.17607E-3,.388E-4,0
SWARM A,2013-067B,2024-07-08T03:56:27.585024,15.32864053,.0002575,87.3444,315.5538,81.3041,278.8502,0,U,39452,999,59702,.24579E-3,.7832E-4,0
SWARM C,2013-067C,2024-07-07T20:06:14.776992,15.32858392,.0002603,87.3442,314.2633,81.2600,278.8946,0,U,39453,999,59693,.23902E-3,.7616E-4,0
BRITE-CA1 (TORONTO),2014-033L,2024-07-08T03:06:08.943552,14.69528199,.0083498,97.8803,326.5178,26.1996,334.3398,0,U,40020,999,53805,.20945E-3,.1259E-4,0
OCO 2,2014-035A,2024-07-07T19:11:02.111136,14.57120631,.0001013,98.2028,130.2666,95.8794,264.2520,0,U,40059,999,53275,.18438E-3,.786E-5,0
BRITE-PL2 (HEWELIUSZ),2014-049B,2024-07-07T07:27:43.801632,14.89015312,.0014491,97.8847,288.8889,300.4169,59.5615,0,U,40119,999,53557,.25228E-3,.2322E-4,0
RESURS-P 2,2014-087A,2024-07-08T03:57:44.971776,15.60684878,.0005794,97.1516,276.8788,203.2023,156.8974,0,U,40360,999,53433,.36102E-3,.29905E-3,0
MMS 1,2015-011A,2024-07-07T22:00:00.999936,0.28409684,.9083243,49.2934,9.7254,147.8918,85.9636,0,U,40482,999,1543,0,-.1708E-4,0
MMS 2,2015-011B,2024-07-07T22:00:00.999936,0.28406371,.9083326,49.2935,9.7252,147.8918,85.7509,0,U,40483,999,1541,0,-.1708E-4,0
MMS 3,2015-011C,2024-07-07T22:00:00.999936,0.28406464,.9083323,49.2935,9.7253,147.8918,85.8306,0,U,40484,999,1541,0,-.1708E-4,0
MMS 4,2015-011D,2024-07-07T22:00:00.999936,0.28370309,.9084491,49.3088,9.7086,147.9018,85.0951,0,U,40485,999,1541,0,-.1711E-4,0
ASTROSAT,2015-052A,2024-07-08T03:55:13.249920,14.79076792,.0008415,5.9957,208.8332,8.5625,351.4646,0,U,40930,999,47457,.20058E-3,.2172E-4,0
DAMPE,2015-078A,2024-07-07T23:11:25.876608,15.27263532,.0014582,97.4297,183.4131,71.9220,288.3606,0,U,41173,999,47615,.76662E-4,.1978E-4,0
PISAT,2016-059B,2024-07-07T00:22:12.443520,14.66014370,.0029336,97.8331,210.1191,312.3942,47.4780,0,U,41784,999,41556,.26425E-3,.1411E-4,0
HXMT (HUIYAN),2017-034A,2024-07-08T03:16:52.435200,15.14784159,.0015084,43.0134,158.8651,286.6418,73.2773,0,U,42758,999,39003,.28685E-3,.5205E-4,0
FLYING LAPTOP,2017-042G,2024-07-08T04:40:48.343872,14.95280167,.0012996,97.3867,9.9231,14.0847,346.0734,0,U,42831,999,38027,.23292E-3,.2515E-4,0
ZHANGHENG 1 (CSES),2018-015C,2024-07-07T22:28:02.286912,15.21022023,.0012377,97.6128,333.8610,86.8275,273.4376,0,U,43194,999,35684,.58024E-3,.12841E-3,0
SALSAT,2020-068K,2024-07-08T04:02:26.176992,15.13478519,.0012176,97.8174,149.9933,237.2542,122.7515,0,U,46495,999,20748,.37975E-3,.6737E-4,0
IXPE,2021-121A,2024-07-07T12:00:02.000160,14.98453295,.000947,0.2284,242.7305,218.9971,247.9876,0,U,49954,999,573,.36484E-3,.5303E-4,0
