SALSAT                  
1 46495U 20068K   24190.16835853  .00006737  00000+0  37975-3 0  9995
2 46495  97.8174 149.9933 0012176 237.2542 122.7515 15.13478519207484
BRITE-AUSTRIA           
1 39091U 13009F   24190.01963808  .00000328  00000+0  12783-3 0  9992
2 39091  98.3855  17.0043 0010060 191.1362 168.9603 14.35833985595266
BRITE-CA1 (TORONTO)     
1 40020U 14033L   24190.12927018  .00001259  00000+0  20945-3 0  9992
2 40020  97.8803 326.5178 0083498  26.1996 334.3398 14.69528199538058
BRITE-PL2 (HEWELIUSZ)   
1 40119U 14049B   24189.31092363  .00002322  00000+0  25228-3 0  9994
2 40119  97.8847 288.8889 0014491 300.4169  59.5615 14.89015312535573
RESURS-P 2              
1 40360U 14087A   24190.16510384  .00029905  00000+0  36102-3 0  9996
2 40360  97.1516 276.8788 0005794 203.2023 156.8974 15.60684878534338
IRIS                    
1 39197U 13033A   24189.55449762  .00001898  00000+0  24386-3 0  9996
2 39197  97.9634  20.0863 0027312 113.8043 246.6037 14.82123259595120
HISAKI (SPRINT-A)       
1 39253U 13049A   24189.49310263  .00000134  00000+0  97195-4 0  9993
2 39253  29.7178 227.7948 0137055  23.7886 336.8949 13.55403935536107
CASSIOPE                
1 39265U 13055A   24189.78195657  .00015181  00000+0  31587-3 0  9993
2 39265  80.9528 172.8317 0493666 202.8110 155.0481 14.70994436561403
STSAT-3                 
1 39422U 13066G   24190.17370109  .00003045  00000+0  28185-3 0  9998
2 39422  97.5213 168.8227 0018933 291.8205  68.1002 14.95106196577956
SWARM B                 
1 39451U 13067A   24189.57170250  .00003880  00000+0  17607-3 0  9992
2 39451  87.7515 196.4219 0003005  92.1707 267.9882 15.20522800575096
SWARM A                 
1 39452U 13067B   24190.16420816  .00007832  00000+0  24579-3 0  9993
2 39452  87.3444 315.5538 0002575  81.3041 278.8502 15.32864053597023
SWARM C                 
1 39453U 13067C   24189.83767103  .00007616  00000+0  23902-3 0  9998
2 39453  87.3442 314.2633 0002603  81.2600 278.8946 15.32858392596936
OCO 2                   
1 40059U 14035A   24189.79932999  .00000786  00000+0  18438-3 0  9999
2 40059  98.2028 130.2666 0001013  95.8794 264.2520 14.57120631532753
MMS 1                   
1 40482U 15011A   24189.91667824 -.00001708  00000+0  00000+0 0  9998
2 40482  49.2934   9.7254 9083243 147.8918  85.9636  0.28409684 15436
MMS 2                   
1 40483U 15011B   24189.91667824 -.00001708  00000+0  00000+0 0  9999
2 40483  49.2935   9.7252 9083326 147.8918  85.7509  0.28406371 15413
MMS 3                   
1 40484U 15011C   24189.91667824 -.00001708  00000+0  00000+0 0  9990
2 40484  49.2935   9.7253 9083323 147.8918  85.8306  0.28406464 15411
MMS 4                   
1 40485U 15011D   24189.91667824 -.00001711  00000+0  00000+0 0  9995
2 40485  49.3088   9.7086 9084491 147.9018  85.0951  0.28370309 15411
ASTROSAT                
1 40930U 15052A   24190.16334780  .00002172  00000+0  20058-3 0  9996
2 40930   5.9957 208.8332 0008415   8.5625 351.4646 14.79076792474571
DAMPE                   
1 41173U 15078A   24189.96627172  .00001978  00000+0  76662-4 0  9996
2 41173  97.4297 183.4131 0014582  71.9220 288.3606 15.27263532476150
PISAT                   
1 41784U 16059B   24189.01542180  .00001411  00000+0  26425-3 0  9998
2 41784  97.8331 210.1191 0029336 312.3942  47.4780 14.66014370415562
HXMT (HUIYAN)           
1 42758U 17034A   24190.13671800  .00005205  00000+0  28685-3 0  9996
2 42758  43.0134 158.8651 0015084 286.6418  73.2773 15.14784159390039
FLYING LAPTOP           
1 42831U 17042G   24190.19500398  .00002515  00000+0  23292-3 0  9996
2 42831  97.3867   9.9231 0012996  14.0847 346.0734 14.95280167380275
ZHANGHENG 1 (CSES)      
1 43194U 18015C   24189.93613758  .00012841  00000+0  58024-3 0  9999
2 43194  97.6128 333.8610 0012377  86.8275 273.4376 15.21022023356842
IXPE                    
1 49954U 21121A   24189.50002315  .00005303  00000+0  36484-3 0  9996
2 49954   0.2284 242.7305 0009470 218.9971 247.9876 14.98453295  5737
